[{"OBJECT_NAME":"ARCSTONE","OBJECT_ID":"2025-135N","EPOCH":"2026-03-09T21:21:29.017152","MEAN_MOTION":15.28638458,"ECCENTRICITY":0.00041199,"INCLINATION":97.4495,"RA_OF_ASC_NODE":185.9194,"ARG_OF_PERICENTER":166.7863,"MEAN_ANOMALY":193.3485,"EPHEMERIS_TYPE":0,"CLASSIFICATION_TYPE":"U","NORAD_CAT_ID":64540,"ELEMENT_SET_NO":999,"REV_AT_EPOCH":3984,"BSTAR":0.00094899777,"MEAN_MOTION_DOT":0.00026427,"MEAN_MOTION_DDOT":0},{"OBJECT_NAME":"STARLINK-34673","OBJECT_ID":"2025-167N","EPOCH":"2026-03-09T06:40:38.602848","MEAN_MOTION":15.30197018,"ECCENTRICITY":0.00011285,"INCLINATION":53.1616,"RA_OF_ASC_NODE":28.797,"ARG_OF_PERICENTER":99.5608,"MEAN_ANOMALY":260.5521,"EPHEMERIS_TYPE":0,"CLASSIFICATION_TYPE":"U","NORAD_CAT_ID":65090,"ELEMENT_SET_NO":999,"REV_AT_EPOCH":3341,"BSTAR":0.0014778358,"MEAN_MOTION_DOT":0.00043663,"MEAN_MOTION_DDOT":0}]
